GLOBALSTAR M057         
1 25943U 99058A   25201.81749299 -.00000035  00000+0  53052-3 0  9999
2 25943  51.9968 252.7644 0002818  91.1784 268.9388 12.24826880171051
GLOBALSTAR M059         
1 25944U 99058B   25202.18015172 -.00000103  00000+0 -20374-3 0  9995
2 25944  52.0016 115.2111 0001129  24.5139 125.7622 11.99979951166872
GLOBALSTAR M056         
1 25945U 99058C   25202.46405564 -.00000144  00000+0 -65747-3 0  9993
2 25945  51.9961 115.5228 0000533 283.1673 249.0242 12.04780683166806
GLOBALSTAR M031         
1 25946U 99058D   25201.77190201  .00000040  00000+0  13227-2 0  9994
2 25946  51.9984   7.7328 0000668 215.5566 157.7301 12.16038986168633
GLOBALSTAR M039         
1 25961U 99062A   25202.29157372 -.00000107  00000+0 -18252-4 0  9997
2 25961  51.9829 164.8404 0002910  59.3025 300.8128 12.62329962184559
GLOBALSTAR M034         
1 25962U 99062B   25202.53553028 -.00000027  00000+0  86200-3 0  9990
2 25962  51.9875 282.1043 0014495 107.5356 354.4840 11.79446588142425
GLOBALSTAR M029         
1 25963U 99062C   25202.41025846 -.00000064  00000+0  27111-3 0  9997
2 25963  51.9827   2.5953 0002665 167.4827 207.6328 11.99898562173284
GLOBALSTAR M061         
1 25964U 99062D   25202.11764345 -.00000082  00000+0 -21738-4 0  9990
2 25964  51.9792 107.6734 0006639  29.1204 112.1041 11.76776231125460
